OSCAR 7 (AO-7)          
1 07530U 74089B   22211.45217084 -.00000045  00000+0  67913-5 0  9992
2 07530 101.9067 191.4621 0012046 321.4915 190.3940 12.53656079182857
PHASE 3B (AO-10)        
1 14129U 83058B   22209.06705636 -.00000352  00000+0  00000+0 0  9998
2 14129  26.4579  89.6783 6012089  93.2560 332.6546  2.05870981266243
UOSAT 2 (UO-11)         
1 14781U 84021B   22211.41081343  .00000350  00000+0  48315-4 0  9990
2 14781  97.6195 196.8930 0008522 170.1095 190.0289 14.83735902 46412
LUSAT (LO-19)           
1 20442U 90005G   22210.90069265  .00000021  00000+0  24420-4 0  9998
2 20442  98.7965 176.4170 0012629  47.9761 312.2495 14.33074085699249
EYESAT A (AO-27)        
1 22825U 93061C   22211.33058999  .00000024  00000+0  26999-4 0  9996
2 22825  98.8846 243.2694 0007384 289.3213  70.7170 14.30183260504283
ITAMSAT (IO-26)         
1 22826U 93061D   22211.55325477  .00000024  00000+0  27074-4 0  9994
2 22826  98.8790 243.3733 0007860 273.0417  86.9865 14.30530373504575
RADIO ROSTO (RS-15)     
1 23439U 94085A   22211.58897490 -.00000039  00000+0  10000-3 0  9991
2 23439  64.8131  75.8477 0167856 265.2272  92.9472 11.27572045136358
JAS-2 (FO-29)           
1 24278U 96046B   22211.32019114 -.00000042  00000+0 -83069-5 0  9995
2 24278  98.5150 229.1148 0350484 171.9020 188.7986 13.53117912281409
TECHSAT 1B (GO-32)      
1 25397U 98043D   22211.15662726  .00000003  00000+0  21088-4 0  9998
2 25397  98.8198 161.7431 0001527  31.7623 328.3647 14.23763619249720
ISS (ZARYA)             
1 25544U 98067A   22211.85414917  .00004998  00000+0  94918-4 0  9991
2 25544  51.6430 120.2867 0005216  67.3643  43.8666 15.50177694351951
PCSAT (NO-44)           
1 26931U 01043C   22211.23443868 -.00000001  00000+0  31303-4 0  9990
2 26931  67.0523 307.9724 0007064 258.5082 101.5226 14.30720451 87521
SAUDISAT 1C (SO-50)     
1 27607U 02058C   22211.20517696  .00000238  00000+0  53143-4 0  9993
2 27607  64.5540 171.0694 0080309 286.2210  73.0067 14.76184168 54689
CUTE-1 (CO-55)          
1 27844U 03031E   22211.47476401  .00000091  00000+0  60573-4 0  9997
2 27844  98.6785 218.5111 0009501 344.9316  15.1577 14.22473629989983
CUBESAT XI-IV (CO-57)   
1 27848U 03031J   22210.95865408  .00000087  00000+0  58950-4 0  9993
2 27848  98.6830 218.5136 0009710   0.8431 359.2761 14.22027923989724
MOZHAYETS 4 (RS-22)     
1 27939U 03042A   22211.56160494  .00000305  00000+0  62643-4 0  9994
2 27939  98.1975 352.2831 0014085  74.4230 285.8524 14.67409885  7365
CUBESAT XI-V            
1 28895U 05043F   22211.29286591  .00000330  00000+0  71374-4 0  9995
2 28895  98.1120 342.0244 0016722  11.3448 348.8128 14.64408018893687
FALCONSAT-3             
1 30776U 07006E   22211.53737012  .00023008  00000+0  31672-3 0  9996
2 30776  35.4316 337.4403 0002530  89.3140 270.7883 15.56300877856293
CUTE-1.7+APD II (CO-65) 
1 32785U 08021C   22211.35277553  .00000760  00000+0  84867-4 0  9990
2 32785  97.6599 180.8514 0014267  91.5929 268.6923 14.89715472772879
DELFI-C3 (DO-64)        
1 32789U 08021G   22211.50228049  .00005334  00000+0  29150-3 0  9992
2 32789  97.3365 236.2640 0010921 164.9307 195.2253 15.14653547778448
SEEDS II (CO-66)        
1 32791U 08021J   22211.41019663  .00001491  00000+0  14899-3 0  9999
2 32791  97.6140 186.3546 0014008  51.6651 308.5825 14.92856892773609
YUBILEINY (RS-30)       
1 32953U 08025A   22211.51737703  .00000024  00000+0  10000-3 0  9997
2 32953  82.5034 157.1599 0019159 162.5542 197.6201 12.43112134643688
KKS-1 (KISEKI)          
1 33499U 09002H   22211.49214443  .00000279  00000+0  48271-4 0  9991
2 33499  98.2121  94.2411 0009091 169.1499 190.9907 14.76069293726593
SWISSCUBE               
1 35932U 09051B   22211.57564599  .00000251  00000+0  66756-4 0  9996
2 35932  98.5643  68.7084 0006277 277.7759  82.2725 14.56911497682377
BEESAT-1                
1 35933U 09051C   22211.59900679  .00000215  00000+0  58875-4 0  9995
2 35933  98.5582  70.3325 0004599 294.5216  65.5501 14.56921949682455
ITUPSAT1                
1 35935U 09051E   22211.36798075  .00000194  00000+0  55053-4 0  9998
2 35935  98.5683  70.1399 0006938 296.8337  63.2150 14.56026995682122
XIWANG-1 (HOPE-1)       
1 36122U 09072B   22211.36515767 -.00000061  00000+0 -46666-4 0  9990
2 36122 100.1855 181.1552 0006812 240.5007 119.5427 13.16370528606450
JUGNU                   
1 37839U 11058B   22211.58067549  .00000318  00000+0  27535-4 0  9994
2 37839  19.9608 273.8853 0018706 272.7117 238.2189 14.12795753558241
SRMSAT                  
1 37841U 11058D   22211.55170054  .00000325  00000+0  33197-4 0  9999
2 37841  19.9735 354.4057 0011908  97.2042 332.3544 14.10763353557330
M-CUBED & EXP-1 PRIME   
1 37855U 11061F   22211.10042706  .00002726  00000+0  12394-3 0  9993
2 37855 101.7147 352.7747 0151670 294.4442  64.1016 15.12934637587688
STRAND-1                
1 39090U 13009E   22211.52056912  .00000040  00000+0  28701-4 0  9997
2 39090  98.4029  48.5288 0009824 137.3172 222.8779 14.35308463493579
SOMP                    
1 39134U 13015E   22211.46995469  .00005967  00000+0  21125-3 0  9990
2 39134  64.8609 280.6072 0035681 274.1623  85.5432 15.29525405513439
BEESAT-3                
1 39135U 13015F   22211.56399544  .00004807  00000+0  19850-3 0  9998
2 39135  64.8673 317.3978 0039065 279.4093  80.2621 15.24595994512686
BEESAT-2                
1 39136U 13015G   22211.31204701  .00004352  00000+0  18880-3 0  9999
2 39136  64.8762 326.6311 0019262 297.0482  62.8681 15.23576759512448
ZACUBE-1 (TSHEPISOSAT)  
1 39417U 13066B   22211.36410011  .00000683  00000+0  89375-4 0  9996
2 39417  97.6389 180.9335 0055988 263.8806  95.6027 14.82476775469486
GOMX-1                  
1 39430U 13066Q   22211.55523137  .00000570  00000+0  11075-3 0  9992
2 39430  97.8063 116.2905 0147580 269.1087  89.3199 14.60284908462582
CUBEBUG-2 (LO-74)       
1 39440U 13066AA  22211.13371045  .00000899  00000+0  12810-3 0  9998
2 39440  97.7282 166.9033 0078510 354.2671   5.7633 14.77133721467786
FUNCUBE-1 (AO-73)       
1 39444U 13066AE  22211.34915420  .00000763  00000+0  96553-4 0  9993
2 39444  97.6269 183.3307 0054852 251.4959 108.0290 14.83583296467881
UWE-3                   
1 39446U 13066AG  22211.35207329  .00000749  00000+0  10294-3 0  9999
2 39446  97.6880 173.5703 0067312 310.4233  49.1119 14.79700081466803
SPROUT                  
1 39770U 14029E   22211.59793327  .00003259  00000+0  33262-3 0  9992
2 39770  97.9460 328.8215 0007450 311.4062  48.6317 14.91333032444094
UNISAT-6                
1 40012U 14033C   22211.25906898  .00000471  00000+0  75424-4 0  9990
2 40012  97.6622  36.9365 0057948  21.8548 338.5114 14.74999686436296
DUCHIFAT-1              
1 40021U 14033M   22211.43464385  .00001280  00000+0  12854-3 0  9996
2 40021  98.0143 162.4271 0010829 258.0751 101.9254 14.93104168441115
QB50P1                  
1 40025U 14033R   22211.55546472  .00000873  00000+0  94938-4 0  9992
2 40025  97.9609 149.2969 0010591 276.7602  83.2410 14.90660370440180
NUDT-PHONESAT           
1 40900U 15049B   22211.50209094  .00016589  00000+0  44679-3 0  9990
2 40900  97.3985 229.7581 0011050 127.2611  29.9842 15.37854709381226
ZDPS 2A                 
1 40901U 15049C   22211.49341478  .00005023  00000+0  20514-3 0  9995
2 40901  97.4581 220.0977 0011564 184.6309 175.4824 15.24794005380015
ZDPS 2B                 
1 40902U 15049D   22211.47540744  .00006492  00000+0  26238-3 0  9991
2 40902  97.4664 217.8093 0011348 181.9770 333.4577 15.25034122379986
XW-2A                   
1 40903U 15049E   22211.47583721  .00013727  00000+0  20498-3 0  9995
2 40903  97.1765 270.1110 0007704 329.3703 158.0957 15.55124600385943
KAITUO 1A               
1 40904U 15049F   22211.49101940  .00002181  00000+0  10986-3 0  9990
2 40904  97.4945 213.6021 0012593 215.1943 296.0824 15.18193690379392
2015-049G               
1 40905U 15049G   22211.47556462  .00001910  00000+0  10063-3 0  9997
2 40905  97.5140 210.7868 0013663 219.3823 293.3553 15.16741405379132
XW-2C                   
1 40906U 15049H   22211.48535272  .00002894  00000+0  13954-3 0  9999
2 40906  97.4925 214.5645 0012964 202.0912 310.3822 15.19450226379454
XW-2D                   
1 40907U 15049J   22211.48921355  .00003289  00000+0  15500-3 0  9999
2 40907  97.4915 214.5865 0012351 197.1291 314.3300 15.20153867379506
LILACSAT-2              
1 40908U 15049K   22211.47410795  .00001792  00000+0  96642-4 0  9994
2 40908  97.5166 211.6365 0013931 223.5899 288.7585 15.16007774379006
XW-2E                   
1 40909U 15049L   22211.48248920  .00005304  00000+0  22032-3 0  9999
2 40909  97.4645 219.2040 0011926 174.7424 289.6234 15.24191977379969
XW-2F                   
1 40910U 15049M   22211.49945302  .00005211  00000+0  21988-3 0  9996
2 40910  97.4717 218.3646 0012933 176.6114 334.8132 15.23659073379739
XW-2B                   
1 40911U 15049N   22211.51882693  .00003212  00000+0  15195-3 0  9995
2 40911  97.4903 215.2027 0012378 198.3227 320.1135 15.20037072379394
KAITUO 1B               
1 40912U 15049P   22211.48151391  .00006242  00000+0  23880-3 0  9992
2 40912  97.4353 222.6939 0013818 144.0354  13.3563 15.26851683380315
TIANWANG 1A (TW-1A)     
1 40928U 15051D   22211.56502413  .00030659  00000+0  33749-3 0  9990
2 40928  97.0359 233.9294 0006244 200.0395 315.0327 15.63072543384962
LAPAN-A2                
1 40931U 15052B   22211.33435548  .00000663  00000+0  31448-5 0  9992
2 40931   5.9998 223.2152 0012689  54.1795 305.9707 14.76836886369694
E-ST@R-II               
1 41459U 16025D   22211.45254836  .00009850  00000+0  41645-3 0  9996
2 41459  98.1884  19.8206 0144042 123.2606 238.2506 15.14422970344006
AAUSAT 4                
1 41460U 16025E   22211.45959629  .00013652  00000+0  50355-3 0  9993
2 41460  98.1812  26.4351 0123290  98.1888 263.3261 15.20967735344476
